CCSDS_OMM_VERS = 2.0
CREATION_DATE  = 
ORIGINATOR     = 

OBJECT_NAME    = TRANSPORTER-15 BZ
OBJECT_ID      = 2025-276BZ
CENTER_NAME    = EARTH
REF_FRAME      = TEME
TIME_SYSTEM    = UTC
MEAN_ELEMENT_THEORY = SGP/SGP4

EPOCH          = 2025-12-19T04:35:57.342624
MEAN_MOTION    = 15.18106701
ECCENTRICITY   = .00021928
INCLINATION    = 97.4452
RA_OF_ASC_NODE = 64.8756
ARG_OF_PERICENTER = 180.9899
MEAN_ANOMALY   = 179.1331

EPHEMERIS_TYPE = 0
CLASSIFICATION_TYPE = U
NORAD_CAT_ID   = 66737
ELEMENT_SET_NO = 999
REV_AT_EPOCH   = 235
BSTAR          = .2066858E-3
MEAN_MOTION_DOT = .4148E-4
MEAN_MOTION_DDOT = 0

CCSDS_OMM_VERS = 2.0
CREATION_DATE  = 
ORIGINATOR     = 

OBJECT_NAME    = TRANSPORTER-15 CA
OBJECT_ID      = 2025-276CA
CENTER_NAME    = EARTH
REF_FRAME      = TEME
TIME_SYSTEM    = UTC
MEAN_ELEMENT_THEORY = SGP/SGP4

EPOCH          = 2025-12-19T04:33:56.037024
MEAN_MOTION    = 15.18202227
ECCENTRICITY   = .00021329
INCLINATION    = 97.4416
RA_OF_ASC_NODE = 64.8663
ARG_OF_PERICENTER = 158.2077
MEAN_ANOMALY   = 201.9249

EPHEMERIS_TYPE = 0
CLASSIFICATION_TYPE = U
NORAD_CAT_ID   = 66738
ELEMENT_SET_NO = 999
REV_AT_EPOCH   = 239
BSTAR          = .19961612E-3
MEAN_MOTION_DOT = .4015E-4
MEAN_MOTION_DDOT = 0

CCSDS_OMM_VERS = 2.0
CREATION_DATE  = 
ORIGINATOR     = 

OBJECT_NAME    = TRANSPORTER-15 CB
OBJECT_ID      = 2025-276CB
CENTER_NAME    = EARTH
REF_FRAME      = TEME
TIME_SYSTEM    = UTC
MEAN_ELEMENT_THEORY = SGP/SGP4

EPOCH          = 2025-12-18T17:34:23.894400
MEAN_MOTION    = 15.17945249
ECCENTRICITY   = .00020419
INCLINATION    = 97.4464
RA_OF_ASC_NODE = 64.4219
ARG_OF_PERICENTER = 200.0570
MEAN_ANOMALY   = 160.0584

EPHEMERIS_TYPE = 0
CLASSIFICATION_TYPE = U
NORAD_CAT_ID   = 66739
ELEMENT_SET_NO = 999
REV_AT_EPOCH   = 303
BSTAR          = .21998573E-3
MEAN_MOTION_DOT = .4399E-4
MEAN_MOTION_DDOT = 0

CCSDS_OMM_VERS = 2.0
CREATION_DATE  = 
ORIGINATOR     = 

OBJECT_NAME    = TRANSPORTER-15 CC
OBJECT_ID      = 2025-276CC
CENTER_NAME    = EARTH
REF_FRAME      = TEME
TIME_SYSTEM    = UTC
MEAN_ELEMENT_THEORY = SGP/SGP4

EPOCH          = 2025-12-19T04:44:45.413376
MEAN_MOTION    = 15.17659889
ECCENTRICITY   = .00019664
INCLINATION    = 97.4426
RA_OF_ASC_NODE = 64.8635
ARG_OF_PERICENTER = 258.6079
MEAN_ANOMALY   = 101.4934

EPHEMERIS_TYPE = 0
CLASSIFICATION_TYPE = U
NORAD_CAT_ID   = 66740
ELEMENT_SET_NO = 999
REV_AT_EPOCH   = 310
BSTAR          = .25031819E-3
MEAN_MOTION_DOT = .4974E-4
MEAN_MOTION_DDOT = 0

CCSDS_OMM_VERS = 2.0
CREATION_DATE  = 
ORIGINATOR     = 

OBJECT_NAME    = TRANSPORTER-15 CD
OBJECT_ID      = 2025-276CD
CENTER_NAME    = EARTH
REF_FRAME      = TEME
TIME_SYSTEM    = UTC
MEAN_ELEMENT_THEORY = SGP/SGP4

EPOCH          = 2025-12-19T04:45:48.579552
MEAN_MOTION    = 15.17516587
ECCENTRICITY   = .00013523
INCLINATION    = 97.4421
RA_OF_ASC_NODE = 64.8549
ARG_OF_PERICENTER = 219.0710
MEAN_ANOMALY   = 141.0426

EPHEMERIS_TYPE = 0
CLASSIFICATION_TYPE = U
NORAD_CAT_ID   = 66741
ELEMENT_SET_NO = 999
REV_AT_EPOCH   = 310
BSTAR          = .11251834E-3
MEAN_MOTION_DOT = .2189E-4
MEAN_MOTION_DDOT = 0

CCSDS_OMM_VERS = 2.0
CREATION_DATE  = 
ORIGINATOR     = 

OBJECT_NAME    = TRANSPORTER-15 CE
OBJECT_ID      = 2025-276CE
CENTER_NAME    = EARTH
REF_FRAME      = TEME
TIME_SYSTEM    = UTC
MEAN_ELEMENT_THEORY = SGP/SGP4

EPOCH          = 2025-12-19T04:43:56.224992
MEAN_MOTION    = 15.17660557
ECCENTRICITY   = .00013271
INCLINATION    = 97.4417
RA_OF_ASC_NODE = 64.8540
ARG_OF_PERICENTER = 207.1691
MEAN_ANOMALY   = 152.9474

EPHEMERIS_TYPE = 0
CLASSIFICATION_TYPE = U
NORAD_CAT_ID   = 66742
ELEMENT_SET_NO = 999
REV_AT_EPOCH   = 310
BSTAR          = .1922238E-3
MEAN_MOTION_DOT = .3803E-4
MEAN_MOTION_DDOT = 0

CCSDS_OMM_VERS = 2.0
CREATION_DATE  = 
ORIGINATOR     = 

OBJECT_NAME    = TRANSPORTER-15 CF
OBJECT_ID      = 2025-276CF
CENTER_NAME    = EARTH
REF_FRAME      = TEME
TIME_SYSTEM    = UTC
MEAN_ELEMENT_THEORY = SGP/SGP4

EPOCH          = 2025-12-19T03:13:26.294304
MEAN_MOTION    = 15.17463299
ECCENTRICITY   = .00004198
INCLINATION    = 97.4417
RA_OF_ASC_NODE = 64.7848
ARG_OF_PERICENTER = 277.9471
MEAN_ANOMALY   = 82.1715

EPHEMERIS_TYPE = 0
CLASSIFICATION_TYPE = U
NORAD_CAT_ID   = 66743
ELEMENT_SET_NO = 999
REV_AT_EPOCH   = 309
BSTAR          = .25146252E-3
MEAN_MOTION_DOT = .4968E-4
MEAN_MOTION_DDOT = 0

CCSDS_OMM_VERS = 2.0
CREATION_DATE  = 
ORIGINATOR     = 

OBJECT_NAME    = TRANSPORTER-15 CG
OBJECT_ID      = 2025-276CG
CENTER_NAME    = EARTH
REF_FRAME      = TEME
TIME_SYSTEM    = UTC
MEAN_ELEMENT_THEORY = SGP/SGP4

EPOCH          = 2025-12-19T03:14:55.683744
MEAN_MOTION    = 15.17299036
ECCENTRICITY   = .00013887
INCLINATION    = 97.4426
RA_OF_ASC_NODE = 64.7925
ARG_OF_PERICENTER = 271.5698
MEAN_ANOMALY   = 88.5377

EPHEMERIS_TYPE = 0
CLASSIFICATION_TYPE = U
NORAD_CAT_ID   = 66744
ELEMENT_SET_NO = 999
REV_AT_EPOCH   = 309
BSTAR          = .11257016E-3
MEAN_MOTION_DOT = .2176E-4
MEAN_MOTION_DDOT = 0

CCSDS_OMM_VERS = 2.0
CREATION_DATE  = 
ORIGINATOR     = 

OBJECT_NAME    = TRANSPORTER-15 CH
OBJECT_ID      = 2025-276CH
CENTER_NAME    = EARTH
REF_FRAME      = TEME
TIME_SYSTEM    = UTC
MEAN_ELEMENT_THEORY = SGP/SGP4

EPOCH          = 2025-12-18T03:28:42.797856
MEAN_MOTION    = 15.17410402
ECCENTRICITY   = .00008886
INCLINATION    = 97.4425
RA_OF_ASC_NODE = 63.8169
ARG_OF_PERICENTER = 243.2573
MEAN_ANOMALY   = 116.8570

EPHEMERIS_TYPE = 0
CLASSIFICATION_TYPE = U
NORAD_CAT_ID   = 66745
ELEMENT_SET_NO = 999
REV_AT_EPOCH   = 294
BSTAR          = .15034976E-3
MEAN_MOTION_DOT = .2939E-4
MEAN_MOTION_DDOT = 0

CCSDS_OMM_VERS = 2.0
CREATION_DATE  = 
ORIGINATOR     = 

OBJECT_NAME    = TRANSPORTER-15 CJ
OBJECT_ID      = 2025-276CJ
CENTER_NAME    = EARTH
REF_FRAME      = TEME
TIME_SYSTEM    = UTC
MEAN_ELEMENT_THEORY = SGP/SGP4

EPOCH          = 2025-12-19T04:48:03.204576
MEAN_MOTION    = 15.17416472
ECCENTRICITY   = .00009628
INCLINATION    = 97.4422
RA_OF_ASC_NODE = 64.8535
ARG_OF_PERICENTER = 234.0891
MEAN_ANOMALY   = 126.0254

EPHEMERIS_TYPE = 0
CLASSIFICATION_TYPE = U
NORAD_CAT_ID   = 66746
ELEMENT_SET_NO = 999
REV_AT_EPOCH   = 310
BSTAR          = .13979791E-3
MEAN_MOTION_DOT = .2728E-4
MEAN_MOTION_DDOT = 0

CCSDS_OMM_VERS = 2.0
CREATION_DATE  = 
ORIGINATOR     = 

OBJECT_NAME    = TRANSPORTER-15 CK
OBJECT_ID      = 2025-276CK
CENTER_NAME    = EARTH
REF_FRAME      = TEME
TIME_SYSTEM    = UTC
MEAN_ELEMENT_THEORY = SGP/SGP4

EPOCH          = 2025-12-19T04:46:21.016704
MEAN_MOTION    = 15.17511120
ECCENTRICITY   = .00011174
INCLINATION    = 97.4424
RA_OF_ASC_NODE = 64.8559
ARG_OF_PERICENTER = 229.4255
MEAN_ANOMALY   = 130.6881

EPHEMERIS_TYPE = 0
CLASSIFICATION_TYPE = U
NORAD_CAT_ID   = 66747
ELEMENT_SET_NO = 999
REV_AT_EPOCH   = 310
BSTAR          = .15724408E-3
MEAN_MOTION_DOT = .3086E-4
MEAN_MOTION_DDOT = 0

CCSDS_OMM_VERS = 2.0
CREATION_DATE  = 
ORIGINATOR     = 

OBJECT_NAME    = TRANSPORTER-15 CL
OBJECT_ID      = 2025-276CL
CENTER_NAME    = EARTH
REF_FRAME      = TEME
TIME_SYSTEM    = UTC
MEAN_ELEMENT_THEORY = SGP/SGP4

EPOCH          = 2025-12-19T04:36:59.478048
MEAN_MOTION    = 15.18371058
ECCENTRICITY   = .00017479
INCLINATION    = 97.4419
RA_OF_ASC_NODE = 64.8629
ARG_OF_PERICENTER = 238.0951
MEAN_ANOMALY   = 122.0113

EPHEMERIS_TYPE = 0
CLASSIFICATION_TYPE = U
NORAD_CAT_ID   = 66748
ELEMENT_SET_NO = 999
REV_AT_EPOCH   = 310
BSTAR          = .71168177E-3
MEAN_MOTION_DOT = .14576E-3
MEAN_MOTION_DDOT = 0

