FLOCK 4H-34             
1 66737U 25276BZ  25353.19163591  .00004148  00000+0  20669-3 0  9996
2 66737  97.4452  64.8756 0002192 180.9899 179.1331 15.18106701  2351
FLOCK 4H-35             
1 66738U 25276CA  25353.19023191  .00004015  00000+0  19962-3 0  9995
2 66738  97.4416  64.8663 0002132 158.2077 201.9249 15.18202227  2395
FLOCK 4H-36             
1 66739U 25276CB  25352.73222100  .00004399  00000+0  21999-3 0  9994
2 66739  97.4464  64.4219 0002041 200.0570 160.0584 15.17945249  3031
TRANSPORTER-15 CC       
1 66740U 25276CC  25353.19774784  .00004974  00000+0  25032-3 0  9998
2 66740  97.4426  64.8635 0001966 258.6079 101.4934 15.17659889  3103
TRANSPORTER-15 CD       
1 66741U 25276CD  25353.19847893  .00002189  00000+0  11252-3 0  9996
2 66741  97.4421  64.8549 0001352 219.0710 141.0426 15.17516587  3108
TRANSPORTER-15 CE       
1 66742U 25276CE  25353.19717853  .00003803  00000+0  19222-3 0  9998
2 66742  97.4417  64.8540 0001327 207.1691 152.9474 15.17660557  3104
TRANSPORTER-15 CF       
1 66743U 25276CF  25353.13433211  .00004968  00000+0  25146-3 0  9991
2 66743  97.4417  64.7848 0000419 277.9471  82.1715 15.17463299  3091
TRANSPORTER-15 CG       
1 66744U 25276CG  25353.13536671  .00002176  00000+0  11257-3 0  9993
2 66744  97.4426  64.7925 0001388 271.5698  88.5377 15.17299036  3095
TRANSPORTER-15 CH       
1 66745U 25276CH  25352.14493979  .00002939  00000+0  15035-3 0  9992
2 66745  97.4425  63.8169 0000888 243.2573 116.8570 15.17410402  2942
TRANSPORTER-15 CJ       
1 66746U 25276CJ  25353.20003709  .00002728  00000+0  13980-3 0  9992
2 66746  97.4422  64.8535 0000962 234.0891 126.0254 15.17416472  3106
TRANSPORTER-15 CK       
1 66747U 25276CK  25353.19885436  .00003086  00000+0  15724-3 0  9992
2 66747  97.4424  64.8559 0001117 229.4255 130.6881 15.17511120  3103
TRANSPORTER-15 CL       
1 66748U 25276CL  25353.19235507  .00014576  00000+0  71168-3 0  9991
2 66748  97.4419  64.8629 0001747 238.0951 122.0113 15.18371058  3102
